{
  "norad_id": 54214,
  "name": "SHIYAN-20C (SY-20C)",
  "history": [
    {
      "epoch": "2026-03-28T21:04:57.825984Z",
      "apogee_km": 801.1768437654619,
      "perigee_km": 785.6471412841083,
      "latitude_deg": 1.2804320261065776e-05,
      "longitude_deg": 63.22109290493201,
      "height_km": 801.8248208244696,
      "semi_major_axis_km": 7171.548992524785,
      "eccentricity": 0.00108273,
      "inclination_deg": 59.9955,
      "raan_deg": 205.7546,
      "arg_perigee_deg": 207.6788,
      "mean_anomaly_deg": 152.3672,
      "mean_motion_rev_day": 14.29497195
    },
    {
      "epoch": "2026-03-29T05:28:33.404160Z",
      "apogee_km": 801.1437111018549,
      "perigee_km": 785.677551480213,
      "latitude_deg": -2.0877036356203632e-06,
      "longitude_deg": -64.17755511974488,
      "height_km": 801.7716068120092,
      "semi_major_axis_km": 7171.547631291033,
      "eccentricity": 0.0010783,
      "inclination_deg": 59.9955,
      "raan_deg": 204.5989,
      "arg_perigee_deg": 208.0551,
      "mean_anomaly_deg": 151.9904,
      "mean_motion_rev_day": 14.29497602
    },
    {
      "epoch": "2026-03-30T04:58:37.004736Z",
      "apogee_km": 801.065298132301,
      "perigee_km": 785.7526132077546,
      "latitude_deg": -4.509617859900894e-05,
      "longitude_deg": -60.89353337281686,
      "height_km": 801.6262694557665,
      "semi_major_axis_km": 7171.545955670027,
      "eccentricity": 0.0010676,
      "inclination_deg": 59.9956,
      "raan_deg": 201.3631,
      "arg_perigee_deg": 209.2418,
      "mean_anomaly_deg": 150.802,
      "mean_motion_rev_day": 14.29498103
    },
    {
      "epoch": "2026-03-30T06:39:20.117952Z",
      "apogee_km": 801.0598505672524,
      "perigee_km": 785.7577798304465,
      "latitude_deg": 3.585843544292011e-05,
      "longitude_deg": -86.37326459287432,
      "height_km": 801.6167799184924,
      "semi_major_axis_km": 7171.54581519885,
      "eccentricity": 0.00106686,
      "inclination_deg": 59.9955,
      "raan_deg": 201.1319,
      "arg_perigee_deg": 209.3139,
      "mean_anomaly_deg": 150.7299,
      "mean_motion_rev_day": 14.29498145
    },
    {
      "epoch": "2026-03-30T15:02:55.677984Z",
      "apogee_km": 801.0345175242555,
      "perigee_km": 785.7817884310971,
      "latitude_deg": 5.424915165294623e-05,
      "longitude_deg": 146.22828264156988,
      "height_km": 801.5658444776583,
      "semi_major_axis_km": 7171.5451529776765,
      "eccentricity": 0.00106342,
      "inclination_deg": 59.9961,
      "raan_deg": 199.9763,
      "arg_perigee_deg": 209.7535,
      "mean_anomaly_deg": 150.2897,
      "mean_motion_rev_day": 14.29498343
    },
    {
      "epoch": "2026-03-30T21:45:48.128256Z",
      "apogee_km": 801.0086224183015,
      "perigee_km": 785.8072420563376,
      "latitude_deg": 2.2527813559248255e-05,
      "longitude_deg": 44.309364373671585,
      "height_km": 801.5193225152501,
      "semi_major_axis_km": 7171.54493223732,
      "eccentricity": 0.00105984,
      "inclination_deg": 59.9955,
      "raan_deg": 199.0517,
      "arg_perigee_deg": 210.1157,
      "mean_anomaly_deg": 149.927,
      "mean_motion_rev_day": 14.29498409
    },
    {
      "epoch": "2026-03-31T19:35:08.576736Z",
      "apogee_km": 800.9394231019287,
      "perigee_km": 785.8734446560356,
      "latitude_deg": 3.954208630708706e-06,
      "longitude_deg": 73.07314102094632,
      "height_km": 801.3844369477483,
      "semi_major_axis_km": 7171.543433878982,
      "eccentricity": 0.0010504,
      "inclination_deg": 59.996,
      "raan_deg": 196.0469,
      "arg_perigee_deg": 211.2329,
      "mean_anomaly_deg": 148.8083,
      "mean_motion_rev_day": 14.29498857
    },
    {
      "epoch": "2026-04-01T20:45:55.226592Z",
      "apogee_km": 800.8583116817617,
      "perigee_km": 785.9529774492967,
      "latitude_deg": -7.535171847349052e-06,
      "longitude_deg": 50.877570894356765,
      "height_km": 801.2235331880775,
      "semi_major_axis_km": 7171.542644565529,
      "eccentricity": 0.0010392,
      "inclination_deg": 59.9955,
      "raan_deg": 192.5798,
      "arg_perigee_deg": 212.5635,
      "mean_anomaly_deg": 147.476,
      "mean_motion_rev_day": 14.29499093
    },
    {
      "epoch": "2026-04-02T20:15:58.733856Z",
      "apogee_km": 800.7827339705154,
      "perigee_km": 786.025137033439,
      "latitude_deg": 1.9262538204897868e-05,
      "longitude_deg": 54.161922725330896,
      "height_km": 801.0711144680814,
      "semi_major_axis_km": 7171.5409355019765,
      "eccentricity": 0.0010289,
      "inclination_deg": 59.996,
      "raan_deg": 189.3439,
      "arg_perigee_deg": 213.8196,
      "mean_anomaly_deg": 146.2184,
      "mean_motion_rev_day": 14.29499604
    }
  ]
}